SHIYAN-12 01 (SY-12 01) 
1 50321U 21129A   25358.75450877 -.00000058  00000+0  00000+0 0  9994
2 50321   3.2230  82.3591 0003847 204.4350 238.3783  1.00424964 14752
SHIYAN-12 02 (SY-12 02) 
1 50322U 21129B   25358.75655328 -.00000001  00000+0  00000+0 0  9991
2 50322   3.2230  82.3659 0003917 193.2154 163.0208  1.00067549 14740
TJS-9                   
1 50574U 21135A   25358.28771113 -.00000278  00000+0  00000+0 0  9992
2 50574   0.0383  65.9090 0000784 170.6762  97.2999  1.00269048 14677
GOES 18                 
1 51850U 22021A   25358.31917542  .00000118  00000+0  00000+0 0  9999
2 51850   0.0170 183.9867 0000375 139.7411 107.2693  1.00271078  4831
ZHONGXING-6D            
1 52255U 22038A   25353.40766947  .00000000  00000+0  00000+0 0  9993
2 52255   0.0130  38.3378 0003156 235.5232  86.1030  1.00268339 13615
NILESAT 301             
1 52817U 22061A   25356.26183633 -.00000036  00000+0  00000+0 0  9995
2 52817   0.0472  19.6948 0004508 280.3769 238.2634  1.00272284 12969
CMS-02 (GSAT 24)        
1 52903U 22067A   25357.99164515 -.00000143  00000+0  00000+0 0  9995
2 52903   0.0403 264.0606 0004615   3.3542 265.3329  1.00270252 12850
MEASAT 3D               
1 52904U 22067B   25358.06850256 -.00000220  00000+0  00000+0 0  9995
2 52904   0.0553 300.4615 0003111 354.6449 273.8913  1.00268367 12891
SES-22                  
1 52933U 22071A   25358.12636289  .00000125  00000+0  00000+0 0  9990
2 52933   0.0144 353.0660 0000944 289.9120  76.4497  1.00274465  5768
WFOV (USA 332)          
1 52940U 22073A   25357.99883853 -.00000343  00000+0  00000+0 0  9998
2 52940   3.2596  80.8163 0002488 146.8245 343.9977  1.00270461 12618
TIANLIAN 2-03           
1 53100U 22078A   25358.26257765  .00000093  00000+0  00000+0 0  9991
2 53100   0.2337  63.4602 0003629 218.8477 275.8508  1.00271573 12794
SBIRS GEO-6 (USA 336)   
1 53355U 22092A   25358.19489353 -.00000270  00000+0  00000+0 0  9999
2 53355   3.5638 314.9056 0002064 311.4204  35.8241  1.00271427 12474
EUTELSAT KONNECT VHTS   
1 53765U 22110A   25358.26101764  .00000038  00000+0  00000+0 0  9991
2 53765   0.0589  98.5782 0002471 149.6286 301.5264  1.00267334  5078
ZHONGXING-1E            
1 53813U 22112A   25358.00669922 -.00000128  00000+0  00000+0 0  9995
2 53813   0.0421 145.7464 0004688 118.4304 272.4530  1.00271207 12092
SES-20                  
1 53960U 22123A   25356.41482659 -.00000079  00000+0  00000+0 0  9998
2 53960   0.0222  65.8506 0001092   7.2507  64.3445  1.00269451 11763
SES-21                  
1 53961U 22123B   25358.25530789  .00000000  00000+0  00000+0 0  9994
2 53961   0.0397  25.8011 0001335 277.4502 110.7695  1.00268257  5455
GALAXY 33 (G-33)        
1 54026U 22128A   25358.18878850  .00000100  00000+0  00000+0 0  9999
2 54026   0.0126 315.9231 0001643 309.5058 122.5078  1.00272122 11987
GALAXY 34 (G-34)        
1 54027U 22128B   25358.26554815  .00000000  00000+0  00000+0 0  9990
2 54027   0.0222 355.4296 0001825 270.8964 153.3579  1.00269724 12155
ANGOSAT 2               
1 54033U 22131A   25358.33641812  .00000156  00000+0  00000+0 0  9995
2 54033   0.0257  91.3398 0000198 253.2529 252.6233  1.00270749 11724
EUTELSAT HOTBIRD 13F    
1 54048U 22134A   25358.10461281  .00000108  00000+0  00000+0 0  9996
2 54048   0.0563 288.8517 0002388  71.3960 143.2903  1.00269795 11624
LDPE-2                  
1 54219U 22144A   25357.51144419  .00000064  00000+0  00000+0 0  9993
2 54219   5.2167  64.8900 0002156 257.6409 133.5274  1.02052288 10079
EUTELSAT HOTBIRD 13G    
1 54225U 22146A   25358.01989183  .00000108  00000+0  00000+0 0  9992
2 54225   0.0535 227.8066 0001713 307.3490 297.8001  1.00268836  5716
ZHONGXING-19            
1 54230U 22148A   25353.59344235 -.00000055  00000+0  00000+0 0  9993
2 54230   0.0251 283.1471 0008888 321.3046 221.0319  1.00271695 11585
GALAXY 31 (G-31)        
1 54243U 22153A   25357.66586132  .00000034  00000+0  00000+0 0  9995
2 54243   0.0283 245.9720 0001474  36.0828 289.1035  1.00271329  5373
GALAXY 32 (G-32)        
1 54244U 22153B   25358.02442752 -.00000153  00000+0  00000+0 0  9999
2 54244   0.0096  16.5696 0001903 300.0291  53.9983  1.00272312 11385
EUTELSAT 10B            
1 54259U 22157A   25358.26249098  .00000089  00000+0  00000+0 0  9990
2 54259   0.0584  95.8929 0000727  53.1792  48.4937  1.00269381 11275
GALAXY 35 (G-35)        
1 54741U 22170A   25358.24203750 -.00000141  00000+0  00000+0 0  9994
2 54741   0.0302 247.2696 0002271  28.3062 171.4865  1.00271455 11141
GALAXY 36 (G-36)        
1 54742U 22170B   25358.11022696 -.00000164  00000+0  00000+0 0  9994
2 54742   0.0172  70.1558 0000358 278.5007  54.9201  1.00272435 11013
METEOSAT-12 (MTG-I1)    
1 54743U 22170C   25358.26041096  .00000013  00000+0  00000+0 0  9998
2 54743   0.6987  25.5050 0001602 240.7783 280.1831  1.00270845 11228
SHIJIAN-23 (SJ-23)      
1 55131U 23002A   25358.77318263 -.00000084  00000+0  00000+0 0  9993
2 55131   3.2684  80.5696 0005190 248.3261 114.1075  1.00513929 10768
APSTAR-6E               
1 55239U 23005A   25356.60739186  .00000000  00000+0  00000+0 0  9993
2 55239   0.0114  37.0753 0003786 218.4841 188.4948  1.00269249 16911
USA 342                 
1 55263U 23008A   25355.19797675  .00000161  00000+0  00000+0 0  9991
2 55263   0.0115 147.9252 0000297  93.6685 303.5250  1.00270174 10736
LDPE-3A                 
1 55264U 23008B   25357.99606519 -.00000290  00000+0  00000+0 0  9992
2 55264   1.8280  83.4271 0000130 348.8262 124.2711  1.01259373 10061
ELEKTRO-L 4             
1 55506U 23016A   25355.28904845 -.00000035  00000+0  00000+0 0  9990
2 55506   0.0994 109.3783 0002984 149.4887 101.1078  1.00270964 10558
AMAZONAS NEXUS          
1 55508U 23017A   25355.54948477 -.00000260  00000+0  00000+0 0  9991
2 55508   0.0376  36.3470 0002222 269.3954 281.4448  1.00269829  5261
ZHONGXING-26            
1 55686U 23023A   25358.28528446 -.00000333  00000+0  00000+0 0  9990
2 55686   0.0593  69.2664 0001310 286.4716 325.0999  1.00266551 10476
LUCH-5X (OLYMP-K 2)     
1 55841U 23031A   25358.75689139  .00000054  00000+0  00000+0 0  9990
2 55841   0.0464  94.4138 0001493  46.5849 286.9860  1.00272044 10180
GAOFEN-13 02            
1 55912U 23036A   25353.01865547 -.00000194  00000+0  00000+0 0  9993
2 55912   1.0814 338.7997 0004300 332.0835 291.8553  1.00268449 10283
SES-18                  
1 55970U 23038A   25358.24004416 -.00000080  00000+0  00000+0 0  9993
2 55970   0.0362 277.4096 0002882 355.1456 163.7719  1.00269877 10345
SES-19                  
1 55971U 23038B   25358.23380412  .00000109  00000+0  00000+0 0  9997
2 55971   0.0315 296.9085 0001430 328.3854 137.0041  1.00271703 10321
INTELSAT 40E (IS-40E)   
1 56174U 23052A   25356.37906253  .00000000  00000+0  00000+0 0  9999
2 56174   0.0159  11.5932 0001555 221.5615 263.4893  1.00268700 10054
VIASAT-3 F1             
1 56370U 23060A   25358.19350194  .00000000  00000+0  00000+0 0  9995
2 56370   0.0192 354.7591 0000079 203.6106 235.2967  1.00267645  9670
ARCTURUS                
1 56371U 23060B   25358.26119097  .00000122  00000+0  00000+0 0  9994
2 56371   2.3250  82.1759 0002994  20.1871  88.0442  1.00883561  9705
GS-1                    
1 56372U 23060C   25357.82469699 -.00000076  00000+0  00000+0 0  9991
2 56372   2.2745  81.9365 0004206 246.4055 136.3067  1.00305598  5782
BEIDOU-3 G4             
1 56564U 23066A   25358.22089072 -.00000090  00000+0  00000+0 0  9994
2 56564   0.7912 302.9366 0002605 227.9709 161.6687  1.00271024  9646
ARABSAT-7B (BADR-8)     
1 56757U 23075A   25358.01503266  .00000166  00000+0  00000+0 0  9994
2 56757   0.0746  29.2154 0003729 298.8214 156.1898  1.00273798  9360
NVS-01 (IRNSS-1J)       
1 56759U 23076A   25358.21482402 -.00000313  00000+0  00000+0 0  9992
2 56759   2.5917 251.1910 0008842  17.0511  31.6531  1.00271582  9367
NUSANTARA TIGA (SATRIA) 
1 57045U 23086A   25358.04052812 -.00000214  00000+0  00000+0 0  9991
2 57045   0.0334 333.8527 0005381 320.7317 318.8197  1.00268066  8008
H2SAT (HEINRICH HERTZ)  
1 57213U 23093A   25358.26067097  .00000023  00000+0  00000+0 0  9998
2 57213   0.0226 103.5648 0000569 196.0757 247.9588  1.00270845  9168
SYRACUSE 4B             
1 57214U 23093B   25358.25919763  .00000000  00000+0  00000+0 0  9999
2 57214   0.0207  17.7201 0000135  34.9163 127.1717  1.00266375  5217
JUPITER 3 (ECHOSTAR 24) 
1 57479U 23108A   25358.00675881  .00000000  00000+0  00000+0 0  9992
2 57479   0.0224  13.8813 0001165 253.9071  92.1982  1.00269646  8896
GALAXY 37 (G-37)        
1 57493U 23112A   25358.25863869  .00000069  00000+0  00000+0 0  9990
2 57493   0.0175  10.2824 0002039 266.7180 142.1368  1.00271583  8789
LUDI TANCE-4 01A        
1 57624U 23120A   25357.56491788 -.00000154  00000+0  00000+0 0  9991
2 57624  15.2261 198.3137 0006481  86.5835 100.6258  1.00270744  8789
TJS-10                  
1 58204U 23169A   25358.75747501  .00000022  00000+0  00000+0 0  9991
2 58204   2.0930  82.6426 0006119 172.7406 283.8312  1.00269851  7799
ZHONGXING-6E            
1 58253U 23172A   25358.28337778  .00000000  00000+0  00000+0 0  9994
2 58253   0.0170  21.2149 0003497 286.7420   2.6343  1.00265218  7903
YAOGAN-41               
1 58582U 23197A   25358.42750537 -.00000340  00000+0  00000+0 0  9992
2 58582   3.4579 310.7332 0009171 197.1614 222.3656  1.00276191  7576
OVZON-3                 
1 58698U 24003A   25358.20095726  .00000072  00000+0  00000+0 0  9996
2 58698   0.0118 321.2124 0000154  85.4862 178.3180  1.00272786  5686
INSAT-3DS               
1 58990U 24033A   25357.99147182 -.00000135  00000+0  00000+0 0  9994
2 58990   0.0583 100.0979 0001200 175.0644 256.6499  1.00271469 45319
MERAH PUTIH 2           
1 58995U 24035A   25358.05183675 -.00000337  00000+0  00000+0 0  9990
2 58995   0.0181  17.5434 0000990 248.8006 318.1072  1.00270431  6835
